<?xml version="1.0" encoding="UTF-8"?>
<seiscomp xmlns="http://geofon.gfz-potsdam.de/ns/seiscomp3-schema/0.10" version="0.10">
  <EventParameters>
    <pick publicID="20180201.013016.81-AIC-CM.MACC.00.HHE">
      <time>
        <value>2018-02-01T01:30:16.818393Z</value>
      </time>
      <waveformID networkCode="CM" stationCode="MACC" locationCode="00" channelCode="HHE"/>
      <filterID>BW(4,1,15)</filterID>
      <methodID>AIC</methodID>
      <phaseHint>P</phaseHint>
      <evaluationMode>automatic</evaluationMode>
      <creationInfo>
        <agencyID>SGC</agencyID>
        <author>pick_b_E@vega2.sgc.gov.co</author>
        <creationTime>2018-10-12T20:21:52.704648Z</creationTime>
      </creationInfo>
    </pick>
    <pick publicID="20180201.044856.94-AIC-CM.MACC.00.HHE">
      <time>
        <value>2018-02-01T04:48:56.948393Z</value>
      </time>
      <waveformID networkCode="CM" stationCode="MACC" locationCode="00" channelCode="HHE"/>
      <filterID>BW(4,1,15)</filterID>
      <methodID>AIC</methodID>
      <phaseHint>P</phaseHint>
      <evaluationMode>automatic</evaluationMode>
      <creationInfo>
        <agencyID>SGC</agencyID>
        <author>pick_b_E@vega2.sgc.gov.co</author>
        <creationTime>2018-10-12T20:21:52.861245Z</creationTime>
      </creationInfo>
    </pick>
    <pick publicID="20180201.053914.07-AIC-CM.MACC.00.HHE">
      <time>
        <value>2018-02-01T05:39:14.078393Z</value>
      </time>
      <waveformID networkCode="CM" stationCode="MACC" locationCode="00" channelCode="HHE"/>
      <filterID>BW(4,1,15)</filterID>
      <methodID>AIC</methodID>
      <phaseHint>P</phaseHint>
      <evaluationMode>automatic</evaluationMode>
      <creationInfo>
        <agencyID>SGC</agencyID>
        <author>pick_b_E@vega2.sgc.gov.co</author>
        <creationTime>2018-10-12T20:21:52.90124Z</creationTime>
      </creationInfo>
    </pick>
    <pick publicID="20180201.060422.01-AIC-CM.MACC.00.HHE">
      <time>
        <value>2018-02-01T06:04:22.018393Z</value>
      </time>
      <waveformID networkCode="CM" stationCode="MACC" locationCode="00" channelCode="HHE"/>
      <filterID>BW(4,1,15)</filterID>
      <methodID>AIC</methodID>
      <phaseHint>P</phaseHint>
      <evaluationMode>automatic</evaluationMode>
      <creationInfo>
        <agencyID>SGC</agencyID>
        <author>pick_b_E@vega2.sgc.gov.co</author>
        <creationTime>2018-10-12T20:21:52.92931Z</creationTime>
      </creationInfo>
    </pick>
    <pick publicID="20180201.062738.21-AIC-CM.MACC.00.HHE">
      <time>
        <value>2018-02-01T06:27:38.218393Z</value>
      </time>
      <waveformID networkCode="CM" stationCode="MACC" locationCode="00" channelCode="HHE"/>
      <filterID>BW(4,1,15)</filterID>
      <methodID>AIC</methodID>
      <phaseHint>P</phaseHint>
      <evaluationMode>automatic</evaluationMode>
      <creationInfo>
        <agencyID>SGC</agencyID>
        <author>pick_b_E@vega2.sgc.gov.co</author>
        <creationTime>2018-10-12T20:21:52.951721Z</creationTime>
      </creationInfo>
    </pick>
    <pick publicID="20180201.083421.42-AIC-CM.MACC.00.HHE">
      <time>
        <value>2018-02-01T08:34:21.428393Z</value>
      </time>
      <waveformID networkCode="CM" stationCode="MACC" locationCode="00" channelCode="HHE"/>
      <filterID>BW(4,1,15)</filterID>
      <methodID>AIC</methodID>
      <phaseHint>P</phaseHint>
      <evaluationMode>automatic</evaluationMode>
      <creationInfo>
        <agencyID>SGC</agencyID>
        <author>pick_b_E@vega2.sgc.gov.co</author>
        <creationTime>2018-10-12T20:21:53.028189Z</creationTime>
      </creationInfo>
    </pick>
    <pick publicID="20180201.110021.31-AIC-CM.MACC.00.HHE">
      <time>
        <value>2018-02-01T11:00:21.318393Z</value>
      </time>
      <waveformID networkCode="CM" stationCode="MACC" locationCode="00" channelCode="HHE"/>
      <filterID>BW(4,1,15)</filterID>
      <methodID>AIC</methodID>
      <phaseHint>P</phaseHint>
      <evaluationMode>automatic</evaluationMode>
      <creationInfo>
        <agencyID>SGC</agencyID>
        <author>pick_b_E@vega2.sgc.gov.co</author>
        <creationTime>2018-10-12T20:21:53.149803Z</creationTime>
      </creationInfo>
    </pick>
    <pick publicID="20180201.111534.37-AIC-CM.MACC.00.HHE">
      <time>
        <value>2018-02-01T11:15:34.378393Z</value>
      </time>
      <waveformID networkCode="CM" stationCode="MACC" locationCode="00" channelCode="HHE"/>
      <filterID>BW(4,1,15)</filterID>
      <methodID>AIC</methodID>
      <phaseHint>P</phaseHint>
      <evaluationMode>automatic</evaluationMode>
      <creationInfo>
        <agencyID>SGC</agencyID>
        <author>pick_b_E@vega2.sgc.gov.co</author>
        <creationTime>2018-10-12T20:21:53.199507Z</creationTime>
      </creationInfo>
    </pick>
    <pick publicID="20180201.111936.55-AIC-CM.MACC.00.HHE">
      <time>
        <value>2018-02-01T11:19:36.558393Z</value>
      </time>
      <waveformID networkCode="CM" stationCode="MACC" locationCode="00" channelCode="HHE"/>
      <filterID>BW(4,1,15)</filterID>
      <methodID>AIC</methodID>
      <phaseHint>P</phaseHint>
      <evaluationMode>automatic</evaluationMode>
      <creationInfo>
        <agencyID>SGC</agencyID>
        <author>pick_b_E@vega2.sgc.gov.co</author>
        <creationTime>2018-10-12T20:21:53.236877Z</creationTime>
      </creationInfo>
    </pick>
    <pick publicID="20180201.114215.16-AIC-CM.MACC.00.HHE">
      <time>
        <value>2018-02-01T11:42:15.168393Z</value>
      </time>
      <waveformID networkCode="CM" stationCode="MACC" locationCode="00" channelCode="HHE"/>
      <filterID>BW(4,1,15)</filterID>
      <methodID>AIC</methodID>
      <phaseHint>P</phaseHint>
      <evaluationMode>automatic</evaluationMode>
      <creationInfo>
        <agencyID>SGC</agencyID>
        <author>pick_b_E@vega2.sgc.gov.co</author>
        <creationTime>2018-10-12T20:21:53.290398Z</creationTime>
      </creationInfo>
    </pick>
    <pick publicID="20180201.114355.39-AIC-CM.MACC.00.HHE">
      <time>
        <value>2018-02-01T11:43:55.398393Z</value>
      </time>
      <waveformID networkCode="CM" stationCode="MACC" locationCode="00" channelCode="HHE"/>
      <filterID>BW(4,1,15)</filterID>
      <methodID>AIC</methodID>
      <phaseHint>P</phaseHint>
      <evaluationMode>automatic</evaluationMode>
      <creationInfo>
        <agencyID>SGC</agencyID>
        <author>pick_b_E@vega2.sgc.gov.co</author>
        <creationTime>2018-10-12T20:21:53.302198Z</creationTime>
      </creationInfo>
    </pick>
    <pick publicID="20180201.155453.29-AIC-CM.MACC.00.HHE">
      <time>
        <value>2018-02-01T15:54:53.298393Z</value>
      </time>
      <waveformID networkCode="CM" stationCode="MACC" locationCode="00" channelCode="HHE"/>
      <filterID>BW(4,1,15)</filterID>
      <methodID>AIC</methodID>
      <phaseHint>P</phaseHint>
      <evaluationMode>automatic</evaluationMode>
      <creationInfo>
        <agencyID>SGC</agencyID>
        <author>pick_b_E@vega2.sgc.gov.co</author>
        <creationTime>2018-10-12T20:21:53.502954Z</creationTime>
      </creationInfo>
    </pick>
    <pick publicID="20180201.012929.43-AIC-CM.ACH4.00.HHE">
      <time>
        <value>2018-02-01T01:29:29.43Z</value>
      </time>
      <waveformID networkCode="CM" stationCode="ACH4" locationCode="00" channelCode="HHE"/>
      <filterID>BW(4,8.5,15.0)</filterID>
      <methodID>AIC</methodID>
      <phaseHint>P</phaseHint>
      <evaluationMode>automatic</evaluationMode>
      <creationInfo>
        <agencyID>SGC</agencyID>
        <author>pick_b_E@vega2.sgc.gov.co</author>
        <creationTime>2018-10-12T20:22:05.583658Z</creationTime>
      </creationInfo>
    </pick>
    <pick publicID="20180201.173020.12-AIC-CM.ACH4.00.HHE">
      <time>
        <value>2018-02-01T17:30:20.12Z</value>
      </time>
      <waveformID networkCode="CM" stationCode="ACH4" locationCode="00" channelCode="HHE"/>
      <filterID>BW(4,8.5,15.0)</filterID>
      <methodID>AIC</methodID>
      <phaseHint>P</phaseHint>
      <evaluationMode>automatic</evaluationMode>
      <creationInfo>
        <agencyID>SGC</agencyID>
        <author>pick_b_E@vega2.sgc.gov.co</author>
        <creationTime>2018-10-12T20:22:06.228249Z</creationTime>
      </creationInfo>
    </pick>
    <pick publicID="20180201.185113.37-AIC-CM.ACH4.00.HHE">
      <time>
        <value>2018-02-01T18:51:13.37Z</value>
      </time>
      <waveformID networkCode="CM" stationCode="ACH4" locationCode="00" channelCode="HHE"/>
      <filterID>BW(4,8.5,15.0)</filterID>
      <methodID>AIC</methodID>
      <phaseHint>P</phaseHint>
      <evaluationMode>automatic</evaluationMode>
      <creationInfo>
        <agencyID>SGC</agencyID>
        <author>pick_b_E@vega2.sgc.gov.co</author>
        <creationTime>2018-10-12T20:22:06.307302Z</creationTime>
      </creationInfo>
    </pick>
    <pick publicID="20180201.012928.68-AIC-CM.ACH2.00.HHE">
      <time>
        <value>2018-02-01T01:29:28.68Z</value>
      </time>
      <waveformID networkCode="CM" stationCode="ACH2" locationCode="00" channelCode="HHE"/>
      <filterID>BW(4,8.5,15.0)</filterID>
      <methodID>AIC</methodID>
      <phaseHint>P</phaseHint>
      <evaluationMode>automatic</evaluationMode>
      <creationInfo>
        <agencyID>SGC</agencyID>
        <author>pick_b_E@vega2.sgc.gov.co</author>
        <creationTime>2018-10-12T20:22:13.809471Z</creationTime>
      </creationInfo>
    </pick>
    <pick publicID="20180201.012929.40-AIC-CM.ACH3.00.HHE">
      <time>
        <value>2018-02-01T01:29:29.4Z</value>
      </time>
      <waveformID networkCode="CM" stationCode="ACH3" locationCode="00" channelCode="HHE"/>
      <filterID>BW(4,8.5,15.0)</filterID>
      <methodID>AIC</methodID>
      <phaseHint>P</phaseHint>
      <evaluationMode>automatic</evaluationMode>
      <creationInfo>
        <agencyID>SGC</agencyID>
        <author>pick_b_E@vega2.sgc.gov.co</author>
        <creationTime>2018-10-12T20:22:16.00901Z</creationTime>
      </creationInfo>
    </pick>
    <pick publicID="20180201.012929.12-AIC-CM.ACH1.00.HHE">
      <time>
        <value>2018-02-01T01:29:29.12Z</value>
      </time>
      <waveformID networkCode="CM" stationCode="ACH1" locationCode="00" channelCode="HHE"/>
      <filterID>BW(4,8.5,15.0)</filterID>
      <methodID>AIC</methodID>
      <phaseHint>P</phaseHint>
      <evaluationMode>automatic</evaluationMode>
      <creationInfo>
        <agencyID>SGC</agencyID>
        <author>pick_b_E@vega2.sgc.gov.co</author>
        <creationTime>2018-10-12T20:22:18.291108Z</creationTime>
      </creationInfo>
    </pick>
    <amplitude publicID="20180201.013016.81-AIC-CM.MACC.00.HHE.snr">
      <type>snr</type>
      <amplitude>
        <value>81.28413736</value>
      </amplitude>
      <timeWindow>
        <reference>2018-02-01T01:30:16.818393Z</reference>
        <begin>-29.59</begin>
        <end>10.41</end>
      </timeWindow>
      <snr>81.28413736</snr>
      <pickID>20180201.013016.81-AIC-CM.MACC.00.HHE</pickID>
      <waveformID networkCode="CM" stationCode="MACC" locationCode="00" channelCode="HHE"/>
      <creationInfo>
        <agencyID>SGC</agencyID>
        <author>pick_b_E@vega2.sgc.gov.co</author>
        <creationTime>2018-10-12T20:21:52.704648Z</creationTime>
      </creationInfo>
    </amplitude>
    <amplitude publicID="20180201.013016.81-AIC-CM.MACC.00.HHE.mb">
      <type>mb</type>
      <amplitude>
        <value>127.2497759</value>
      </amplitude>
      <timeWindow>
        <reference>2018-02-01T01:30:36.888393Z</reference>
        <begin>-25.07</begin>
        <end>9.93</end>
      </timeWindow>
      <period>
        <value>0.24</value>
      </period>
      <snr>12.88100496</snr>
      <pickID>20180201.013016.81-AIC-CM.MACC.00.HHE</pickID>
      <waveformID networkCode="CM" stationCode="MACC" locationCode="00" channelCode="HHE"/>
      <creationInfo>
        <agencyID>SGC</agencyID>
        <author>pick_b_E@vega2.sgc.gov.co</author>
        <creationTime>2018-10-12T20:21:52.715217Z</creationTime>
      </creationInfo>
    </amplitude>
    <amplitude publicID="20180201.013016.81-AIC-CM.MACC.00.HHE.mB">
      <type>mB</type>
      <amplitude>
        <value>11901.52794</value>
      </amplitude>
      <timeWindow>
        <reference>2018-02-01T01:30:36.408393Z</reference>
        <begin>-24.59</begin>
        <end>40.41</end>
      </timeWindow>
      <snr>54.50148121</snr>
      <pickID>20180201.013016.81-AIC-CM.MACC.00.HHE</pickID>
      <waveformID networkCode="CM" stationCode="MACC" locationCode="00" channelCode="HHE"/>
      <creationInfo>
        <agencyID>SGC</agencyID>
        <author>pick_b_E@vega2.sgc.gov.co</author>
        <creationTime>2018-10-12T20:21:52.72559Z</creationTime>
      </creationInfo>
    </amplitude>
    <amplitude publicID="20180201.013016.81-AIC-CM.MACC.00.HHE.MLv">
      <type>MLv</type>
      <amplitude>
        <value>1.253888083</value>
      </amplitude>
      <timeWindow>
        <reference>2018-02-01T01:30:36.098393Z</reference>
        <begin>-24.28</begin>
        <end>130.72</end>
      </timeWindow>
      <snr>45.21597894</snr>
      <pickID>20180201.013016.81-AIC-CM.MACC.00.HHE</pickID>
      <waveformID networkCode="CM" stationCode="MACC" locationCode="00" channelCode="HHE"/>
      <creationInfo>
        <agencyID>SGC</agencyID>
        <author>pick_b_E@vega2.sgc.gov.co</author>
        <creationTime>2018-10-12T20:21:52.738341Z</creationTime>
      </creationInfo>
    </amplitude>
    <amplitude publicID="20180201.044856.94-AIC-CM.MACC.00.HHE.snr">
      <type>snr</type>
      <amplitude>
        <value>23.61196359</value>
      </amplitude>
      <timeWindow>
        <reference>2018-02-01T04:48:56.948393Z</reference>
        <begin>-29.74</begin>
        <end>10.26</end>
      </timeWindow>
      <snr>23.61196359</snr>
      <pickID>20180201.044856.94-AIC-CM.MACC.00.HHE</pickID>
      <waveformID networkCode="CM" stationCode="MACC" locationCode="00" channelCode="HHE"/>
      <creationInfo>
        <agencyID>SGC</agencyID>
        <author>pick_b_E@vega2.sgc.gov.co</author>
        <creationTime>2018-10-12T20:21:52.861245Z</creationTime>
      </creationInfo>
    </amplitude>
    <amplitude publicID="20180201.044856.94-AIC-CM.MACC.00.HHE.mb">
      <type>mb</type>
      <amplitude>
        <value>258.7908264</value>
      </amplitude>
      <timeWindow>
        <reference>2018-02-01T04:48:58.028393Z</reference>
        <begin>-6.08</begin>
        <end>28.92</end>
      </timeWindow>
      <period>
        <value>1.065</value>
      </period>
      <snr>70.61575056</snr>
      <pickID>20180201.044856.94-AIC-CM.MACC.00.HHE</pickID>
      <waveformID networkCode="CM" stationCode="MACC" locationCode="00" channelCode="HHE"/>
      <creationInfo>
        <agencyID>SGC</agencyID>
        <author>pick_b_E@vega2.sgc.gov.co</author>
        <creationTime>2018-10-12T20:21:52.868332Z</creationTime>
      </creationInfo>
    </amplitude>
    <amplitude publicID="20180201.044856.94-AIC-CM.MACC.00.HHE.mB">
      <type>mB</type>
      <amplitude>
        <value>2345.43111</value>
      </amplitude>
      <timeWindow>
        <reference>2018-02-01T04:48:57.568393Z</reference>
        <begin>-5.62</begin>
        <end>59.38</end>
      </timeWindow>
      <snr>10.45621609</snr>
      <pickID>20180201.044856.94-AIC-CM.MACC.00.HHE</pickID>
      <waveformID networkCode="CM" stationCode="MACC" locationCode="00" channelCode="HHE"/>
      <creationInfo>
        <agencyID>SGC</agencyID>
        <author>pick_b_E@vega2.sgc.gov.co</author>
        <creationTime>2018-10-12T20:21:52.873095Z</creationTime>
      </creationInfo>
    </amplitude>
    <amplitude publicID="20180201.044856.94-AIC-CM.MACC.00.HHE.MLv">
      <type>MLv</type>
      <amplitude>
        <value>0.6422520173</value>
      </amplitude>
      <timeWindow>
        <reference>2018-02-01T04:48:57.538393Z</reference>
        <begin>-5.59</begin>
        <end>149.41</end>
      </timeWindow>
      <snr>33.03727548</snr>
      <pickID>20180201.044856.94-AIC-CM.MACC.00.HHE</pickID>
      <waveformID networkCode="CM" stationCode="MACC" locationCode="00" channelCode="HHE"/>
      <creationInfo>
        <agencyID>SGC</agencyID>
        <author>pick_b_E@vega2.sgc.gov.co</author>
        <creationTime>2018-10-12T20:21:52.879265Z</creationTime>
      </creationInfo>
    </amplitude>
    <amplitude publicID="20180201.053914.07-AIC-CM.MACC.00.HHE.snr">
      <type>snr</type>
      <amplitude>
        <value>10.19153988</value>
      </amplitude>
      <timeWindow>
        <reference>2018-02-01T05:39:14.078393Z</reference>
        <begin>-26.19</begin>
        <end>13.81</end>
      </timeWindow>
      <snr>10.19153988</snr>
      <pickID>20180201.053914.07-AIC-CM.MACC.00.HHE</pickID>
      <waveformID networkCode="CM" stationCode="MACC" locationCode="00" channelCode="HHE"/>
      <creationInfo>
        <agencyID>SGC</agencyID>
        <author>pick_b_E@vega2.sgc.gov.co</author>
        <creationTime>2018-10-12T20:21:52.90124Z</creationTime>
      </creationInfo>
    </amplitude>
    <amplitude publicID="20180201.053914.07-AIC-CM.MACC.00.HHE.mb">
      <type>mb</type>
      <amplitude>
        <value>62.44709725</value>
      </amplitude>
      <timeWindow>
        <reference>2018-02-01T05:39:37.008393Z</reference>
        <begin>-27.93</begin>
        <end>7.07</end>
      </timeWindow>
      <period>
        <value>0.795</value>
      </period>
      <snr>15.6646979</snr>
      <pickID>20180201.053914.07-AIC-CM.MACC.00.HHE</pickID>
      <waveformID networkCode="CM" stationCode="MACC" locationCode="00" channelCode="HHE"/>
      <creationInfo>
        <agencyID>SGC</agencyID>
        <author>pick_b_E@vega2.sgc.gov.co</author>
        <creationTime>2018-10-12T20:21:52.905974Z</creationTime>
      </creationInfo>
    </amplitude>
    <amplitude publicID="20180201.053914.07-AIC-CM.MACC.00.HHE.mB">
      <type>mB</type>
      <amplitude>
        <value>980.3731682</value>
      </amplitude>
      <timeWindow>
        <reference>2018-02-01T05:39:44.258393Z</reference>
        <begin>-35.18</begin>
        <end>29.82</end>
      </timeWindow>
      <snr>4.387242267</snr>
      <pickID>20180201.053914.07-AIC-CM.MACC.00.HHE</pickID>
      <waveformID networkCode="CM" stationCode="MACC" locationCode="00" channelCode="HHE"/>
      <creationInfo>
        <agencyID>SGC</agencyID>
        <author>pick_b_E@vega2.sgc.gov.co</author>
        <creationTime>2018-10-12T20:21:52.910621Z</creationTime>
      </creationInfo>
    </amplitude>
    <amplitude publicID="20180201.053914.07-AIC-CM.MACC.00.HHE.MLv">
      <type>MLv</type>
      <amplitude>
        <value>0.4180718526</value>
      </amplitude>
      <timeWindow>
        <reference>2018-02-01T05:41:29.418393Z</reference>
        <begin>-140.34</begin>
        <end>14.66</end>
      </timeWindow>
      <snr>20.48977047</snr>
      <pickID>20180201.053914.07-AIC-CM.MACC.00.HHE</pickID>
      <waveformID networkCode="CM" stationCode="MACC" locationCode="00" channelCode="HHE"/>
      <creationInfo>
        <agencyID>SGC</agencyID>
        <author>pick_b_E@vega2.sgc.gov.co</author>
        <creationTime>2018-10-12T20:21:52.917959Z</creationTime>
      </creationInfo>
    </amplitude>
    <amplitude publicID="20180201.060422.01-AIC-CM.MACC.00.HHE.snr">
      <type>snr</type>
      <amplitude>
        <value>20.45557494</value>
      </amplitude>
      <timeWindow>
        <reference>2018-02-01T06:04:22.018393Z</reference>
        <begin>-29.71</begin>
        <end>10.29</end>
      </timeWindow>
      <snr>20.45557494</snr>
      <pickID>20180201.060422.01-AIC-CM.MACC.00.HHE</pickID>
      <waveformID networkCode="CM" stationCode="MACC" locationCode="00" channelCode="HHE"/>
      <creationInfo>
        <agencyID>SGC</agencyID>
        <author>pick_b_E@vega2.sgc.gov.co</author>
        <creationTime>2018-10-12T20:21:52.92931Z</creationTime>
      </creationInfo>
