<?xml version="1.0" encoding="UTF-8"?>
<seiscomp xmlns="http://geofon.gfz-potsdam.de/ns/seiscomp3-schema/0.10" version="0.10">
  <EventParameters>
    <pick publicID="20180201.020006.67-AIC-CM.MACC.00.HHN">
      <time>
        <value>2018-02-01T02:00:06.678393Z</value>
      </time>
      <waveformID networkCode="CM" stationCode="MACC" locationCode="00" channelCode="HHN"/>
      <filterID>BW(4,1,15)</filterID>
      <methodID>AIC</methodID>
      <phaseHint>P</phaseHint>
      <evaluationMode>automatic</evaluationMode>
      <creationInfo>
        <agencyID>SGC</agencyID>
        <author>pick_b_N@vega2.sgc.gov.co</author>
        <creationTime>2018-10-12T20:21:38.276052Z</creationTime>
      </creationInfo>
    </pick>
    <pick publicID="20180201.044856.93-AIC-CM.MACC.00.HHN">
      <time>
        <value>2018-02-01T04:48:56.938393Z</value>
      </time>
      <waveformID networkCode="CM" stationCode="MACC" locationCode="00" channelCode="HHN"/>
      <filterID>BW(4,1,15)</filterID>
      <methodID>AIC</methodID>
      <phaseHint>P</phaseHint>
      <evaluationMode>automatic</evaluationMode>
      <creationInfo>
        <agencyID>SGC</agencyID>
        <author>pick_b_N@vega2.sgc.gov.co</author>
        <creationTime>2018-10-12T20:21:38.383228Z</creationTime>
      </creationInfo>
    </pick>
    <pick publicID="20180201.053912.02-AIC-CM.MACC.00.HHN">
      <time>
        <value>2018-02-01T05:39:12.028393Z</value>
      </time>
      <waveformID networkCode="CM" stationCode="MACC" locationCode="00" channelCode="HHN"/>
      <filterID>BW(4,1,15)</filterID>
      <methodID>AIC</methodID>
      <phaseHint>P</phaseHint>
      <evaluationMode>automatic</evaluationMode>
      <creationInfo>
        <agencyID>SGC</agencyID>
        <author>pick_b_N@vega2.sgc.gov.co</author>
        <creationTime>2018-10-12T20:21:38.430855Z</creationTime>
      </creationInfo>
    </pick>
    <pick publicID="20180201.060422.18-AIC-CM.MACC.00.HHN">
      <time>
        <value>2018-02-01T06:04:22.188393Z</value>
      </time>
      <waveformID networkCode="CM" stationCode="MACC" locationCode="00" channelCode="HHN"/>
      <filterID>BW(4,1,15)</filterID>
      <methodID>AIC</methodID>
      <phaseHint>P</phaseHint>
      <evaluationMode>automatic</evaluationMode>
      <creationInfo>
        <agencyID>SGC</agencyID>
        <author>pick_b_N@vega2.sgc.gov.co</author>
        <creationTime>2018-10-12T20:21:38.462182Z</creationTime>
      </creationInfo>
    </pick>
    <pick publicID="20180201.062756.72-AIC-CM.MACC.00.HHN">
      <time>
        <value>2018-02-01T06:27:56.728393Z</value>
      </time>
      <waveformID networkCode="CM" stationCode="MACC" locationCode="00" channelCode="HHN"/>
      <filterID>BW(4,1,15)</filterID>
      <methodID>AIC</methodID>
      <phaseHint>P</phaseHint>
      <evaluationMode>automatic</evaluationMode>
      <creationInfo>
        <agencyID>SGC</agencyID>
        <author>pick_b_N@vega2.sgc.gov.co</author>
        <creationTime>2018-10-12T20:21:38.513674Z</creationTime>
      </creationInfo>
    </pick>
    <pick publicID="20180201.075527.67-AIC-CM.MACC.00.HHN">
      <time>
        <value>2018-02-01T07:55:27.678393Z</value>
      </time>
      <waveformID networkCode="CM" stationCode="MACC" locationCode="00" channelCode="HHN"/>
      <filterID>BW(4,1,15)</filterID>
      <methodID>AIC</methodID>
      <phaseHint>P</phaseHint>
      <evaluationMode>automatic</evaluationMode>
      <creationInfo>
        <agencyID>SGC</agencyID>
        <author>pick_b_N@vega2.sgc.gov.co</author>
        <creationTime>2018-10-12T20:21:38.62562Z</creationTime>
      </creationInfo>
    </pick>
    <pick publicID="20180201.083421.28-AIC-CM.MACC.00.HHN">
      <time>
        <value>2018-02-01T08:34:21.288393Z</value>
      </time>
      <waveformID networkCode="CM" stationCode="MACC" locationCode="00" channelCode="HHN"/>
      <filterID>BW(4,1,15)</filterID>
      <methodID>AIC</methodID>
      <phaseHint>P</phaseHint>
      <evaluationMode>automatic</evaluationMode>
      <creationInfo>
        <agencyID>SGC</agencyID>
        <author>pick_b_N@vega2.sgc.gov.co</author>
        <creationTime>2018-10-12T20:21:38.682793Z</creationTime>
      </creationInfo>
    </pick>
    <pick publicID="20180201.111211.78-AIC-CM.MACC.00.HHN">
      <time>
        <value>2018-02-01T11:12:11.788393Z</value>
      </time>
      <waveformID networkCode="CM" stationCode="MACC" locationCode="00" channelCode="HHN"/>
      <filterID>BW(4,1,15)</filterID>
      <methodID>AIC</methodID>
      <phaseHint>P</phaseHint>
      <evaluationMode>automatic</evaluationMode>
      <creationInfo>
        <agencyID>SGC</agencyID>
        <author>pick_b_N@vega2.sgc.gov.co</author>
        <creationTime>2018-10-12T20:21:38.81329Z</creationTime>
      </creationInfo>
    </pick>
    <pick publicID="20180201.111543.02-AIC-CM.MACC.00.HHN">
      <time>
        <value>2018-02-01T11:15:43.028393Z</value>
      </time>
      <waveformID networkCode="CM" stationCode="MACC" locationCode="00" channelCode="HHN"/>
      <filterID>BW(4,1,15)</filterID>
      <methodID>AIC</methodID>
      <phaseHint>P</phaseHint>
      <evaluationMode>automatic</evaluationMode>
      <creationInfo>
        <agencyID>SGC</agencyID>
        <author>pick_b_N@vega2.sgc.gov.co</author>
        <creationTime>2018-10-12T20:21:38.848785Z</creationTime>
      </creationInfo>
    </pick>
    <pick publicID="20180201.114215.18-AIC-CM.MACC.00.HHN">
      <time>
        <value>2018-02-01T11:42:15.188393Z</value>
      </time>
      <waveformID networkCode="CM" stationCode="MACC" locationCode="00" channelCode="HHN"/>
      <filterID>BW(4,1,15)</filterID>
      <methodID>AIC</methodID>
      <phaseHint>P</phaseHint>
      <evaluationMode>automatic</evaluationMode>
      <creationInfo>
        <agencyID>SGC</agencyID>
        <author>pick_b_N@vega2.sgc.gov.co</author>
        <creationTime>2018-10-12T20:21:38.90733Z</creationTime>
      </creationInfo>
    </pick>
    <pick publicID="20180201.114339.44-AIC-CM.MACC.00.HHN">
      <time>
        <value>2018-02-01T11:43:39.448393Z</value>
      </time>
      <waveformID networkCode="CM" stationCode="MACC" locationCode="00" channelCode="HHN"/>
      <filterID>BW(4,1,15)</filterID>
      <methodID>AIC</methodID>
      <phaseHint>P</phaseHint>
      <evaluationMode>automatic</evaluationMode>
      <creationInfo>
        <agencyID>SGC</agencyID>
        <author>pick_b_N@vega2.sgc.gov.co</author>
        <creationTime>2018-10-12T20:21:38.931234Z</creationTime>
      </creationInfo>
    </pick>
    <pick publicID="20180201.144904.74-AIC-CM.MACC.00.HHN">
      <time>
        <value>2018-02-01T14:49:04.748393Z</value>
      </time>
      <waveformID networkCode="CM" stationCode="MACC" locationCode="00" channelCode="HHN"/>
      <filterID>BW(4,1,15)</filterID>
      <methodID>AIC</methodID>
      <phaseHint>P</phaseHint>
      <evaluationMode>automatic</evaluationMode>
      <creationInfo>
        <agencyID>SGC</agencyID>
        <author>pick_b_N@vega2.sgc.gov.co</author>
        <creationTime>2018-10-12T20:21:39.137062Z</creationTime>
      </creationInfo>
    </pick>
    <pick publicID="20180201.012929.47-AIC-CM.ACH4.00.HHN">
      <time>
        <value>2018-02-01T01:29:29.47Z</value>
      </time>
      <waveformID networkCode="CM" stationCode="ACH4" locationCode="00" channelCode="HHN"/>
      <filterID>BW(4,8.5,15.0)</filterID>
      <methodID>AIC</methodID>
      <phaseHint>P</phaseHint>
      <evaluationMode>automatic</evaluationMode>
      <creationInfo>
        <agencyID>SGC</agencyID>
        <author>pick_b_N@vega2.sgc.gov.co</author>
        <creationTime>2018-10-12T20:21:44.65303Z</creationTime>
      </creationInfo>
    </pick>
    <pick publicID="20180201.012928.94-AIC-CM.ACH2.00.HHN">
      <time>
        <value>2018-02-01T01:29:28.94Z</value>
      </time>
      <waveformID networkCode="CM" stationCode="ACH2" locationCode="00" channelCode="HHN"/>
      <filterID>BW(4,8.5,15.0)</filterID>
      <methodID>AIC</methodID>
      <phaseHint>P</phaseHint>
      <evaluationMode>automatic</evaluationMode>
      <creationInfo>
        <agencyID>SGC</agencyID>
        <author>pick_b_N@vega2.sgc.gov.co</author>
        <creationTime>2018-10-12T20:21:46.578123Z</creationTime>
      </creationInfo>
    </pick>
    <pick publicID="20180201.012929.39-AIC-CM.ACH1.00.HHN">
      <time>
        <value>2018-02-01T01:29:29.39Z</value>
      </time>
      <waveformID networkCode="CM" stationCode="ACH1" locationCode="00" channelCode="HHN"/>
      <filterID>BW(4,8.5,15.0)</filterID>
      <methodID>AIC</methodID>
      <phaseHint>P</phaseHint>
      <evaluationMode>automatic</evaluationMode>
      <creationInfo>
        <agencyID>SGC</agencyID>
        <author>pick_b_N@vega2.sgc.gov.co</author>
        <creationTime>2018-10-12T20:21:50.791804Z</creationTime>
      </creationInfo>
    </pick>
    <amplitude publicID="20180201.020006.67-AIC-CM.MACC.00.HHN.snr">
      <type>snr</type>
      <amplitude>
        <value>10.96125549</value>
      </amplitude>
      <timeWindow>
        <reference>2018-02-01T02:00:06.678393Z</reference>
        <begin>-28.36</begin>
        <end>11.64</end>
      </timeWindow>
      <snr>10.96125549</snr>
      <pickID>20180201.020006.67-AIC-CM.MACC.00.HHN</pickID>
      <waveformID networkCode="CM" stationCode="MACC" locationCode="00" channelCode="HHN"/>
      <creationInfo>
        <agencyID>SGC</agencyID>
        <author>pick_b_N@vega2.sgc.gov.co</author>
        <creationTime>2018-10-12T20:21:38.276052Z</creationTime>
      </creationInfo>
    </amplitude>
    <amplitude publicID="20180201.020006.67-AIC-CM.MACC.00.HHN.mb">
      <type>mb</type>
      <amplitude>
        <value>26.47928452</value>
      </amplitude>
      <timeWindow>
        <reference>2018-02-01T02:00:08.318393Z</reference>
        <begin>-6.64</begin>
        <end>28.36</end>
      </timeWindow>
      <period>
        <value>0.4575</value>
      </period>
      <snr>5.378605543</snr>
      <pickID>20180201.020006.67-AIC-CM.MACC.00.HHN</pickID>
      <waveformID networkCode="CM" stationCode="MACC" locationCode="00" channelCode="HHN"/>
      <creationInfo>
        <agencyID>SGC</agencyID>
        <author>pick_b_N@vega2.sgc.gov.co</author>
        <creationTime>2018-10-12T20:21:38.282513Z</creationTime>
      </creationInfo>
    </amplitude>
    <amplitude publicID="20180201.020006.67-AIC-CM.MACC.00.HHN.mB">
      <type>mB</type>
      <amplitude>
        <value>1567.843191</value>
      </amplitude>
      <timeWindow>
        <reference>2018-02-01T02:00:08.858393Z</reference>
        <begin>-7.18</begin>
        <end>57.82</end>
      </timeWindow>
      <snr>5.780131954</snr>
      <pickID>20180201.020006.67-AIC-CM.MACC.00.HHN</pickID>
      <waveformID networkCode="CM" stationCode="MACC" locationCode="00" channelCode="HHN"/>
      <creationInfo>
        <agencyID>SGC</agencyID>
        <author>pick_b_N@vega2.sgc.gov.co</author>
        <creationTime>2018-10-12T20:21:38.28608Z</creationTime>
      </creationInfo>
    </amplitude>
    <amplitude publicID="20180201.020006.67-AIC-CM.MACC.00.HHN.MLv">
      <type>MLv</type>
      <amplitude>
        <value>0.1341086867</value>
      </amplitude>
      <timeWindow>
        <reference>2018-02-01T02:00:08.878393Z</reference>
        <begin>-7.2</begin>
        <end>147.8</end>
      </timeWindow>
      <snr>5.83455577</snr>
      <pickID>20180201.020006.67-AIC-CM.MACC.00.HHN</pickID>
      <waveformID networkCode="CM" stationCode="MACC" locationCode="00" channelCode="HHN"/>
      <creationInfo>
        <agencyID>SGC</agencyID>
        <author>pick_b_N@vega2.sgc.gov.co</author>
        <creationTime>2018-10-12T20:21:38.294803Z</creationTime>
      </creationInfo>
    </amplitude>
    <amplitude publicID="20180201.044856.93-AIC-CM.MACC.00.HHN.snr">
      <type>snr</type>
      <amplitude>
        <value>28.79066377</value>
      </amplitude>
      <timeWindow>
        <reference>2018-02-01T04:48:56.938393Z</reference>
        <begin>-29.68</begin>
        <end>10.32</end>
      </timeWindow>
      <snr>28.79066377</snr>
      <pickID>20180201.044856.93-AIC-CM.MACC.00.HHN</pickID>
      <waveformID networkCode="CM" stationCode="MACC" locationCode="00" channelCode="HHN"/>
      <creationInfo>
        <agencyID>SGC</agencyID>
        <author>pick_b_N@vega2.sgc.gov.co</author>
        <creationTime>2018-10-12T20:21:38.383228Z</creationTime>
      </creationInfo>
    </amplitude>
    <amplitude publicID="20180201.044856.93-AIC-CM.MACC.00.HHN.mb">
      <type>mb</type>
      <amplitude>
        <value>305.1930353</value>
      </amplitude>
      <timeWindow>
        <reference>2018-02-01T04:48:57.988393Z</reference>
        <begin>-6.05</begin>
        <end>28.95</end>
      </timeWindow>
      <period>
        <value>1.07</value>
      </period>
      <snr>63.6556788</snr>
      <pickID>20180201.044856.93-AIC-CM.MACC.00.HHN</pickID>
      <waveformID networkCode="CM" stationCode="MACC" locationCode="00" channelCode="HHN"/>
      <creationInfo>
        <agencyID>SGC</agencyID>
        <author>pick_b_N@vega2.sgc.gov.co</author>
        <creationTime>2018-10-12T20:21:38.392203Z</creationTime>
      </creationInfo>
    </amplitude>
    <amplitude publicID="20180201.044856.93-AIC-CM.MACC.00.HHN.mB">
      <type>mB</type>
      <amplitude>
        <value>2953.671721</value>
      </amplitude>
      <timeWindow>
        <reference>2018-02-01T04:48:57.558393Z</reference>
        <begin>-5.62</begin>
        <end>59.38</end>
      </timeWindow>
      <snr>14.60529859</snr>
      <pickID>20180201.044856.93-AIC-CM.MACC.00.HHN</pickID>
      <waveformID networkCode="CM" stationCode="MACC" locationCode="00" channelCode="HHN"/>
      <creationInfo>
        <agencyID>SGC</agencyID>
        <author>pick_b_N@vega2.sgc.gov.co</author>
        <creationTime>2018-10-12T20:21:38.395658Z</creationTime>
      </creationInfo>
    </amplitude>
    <amplitude publicID="20180201.044856.93-AIC-CM.MACC.00.HHN.MLv">
      <type>MLv</type>
      <amplitude>
        <value>0.8404563982</value>
      </amplitude>
      <timeWindow>
        <reference>2018-02-01T04:48:57.548393Z</reference>
        <begin>-5.61</begin>
        <end>149.39</end>
      </timeWindow>
      <snr>39.410078</snr>
      <pickID>20180201.044856.93-AIC-CM.MACC.00.HHN</pickID>
      <waveformID networkCode="CM" stationCode="MACC" locationCode="00" channelCode="HHN"/>
      <creationInfo>
        <agencyID>SGC</agencyID>
        <author>pick_b_N@vega2.sgc.gov.co</author>
        <creationTime>2018-10-12T20:21:38.403665Z</creationTime>
      </creationInfo>
    </amplitude>
    <amplitude publicID="20180201.053912.02-AIC-CM.MACC.00.HHN.snr">
      <type>snr</type>
      <amplitude>
        <value>18.45794867</value>
      </amplitude>
      <timeWindow>
        <reference>2018-02-01T05:39:12.028393Z</reference>
        <begin>-28.05</begin>
        <end>11.95</end>
      </timeWindow>
      <snr>18.45794867</snr>
      <pickID>20180201.053912.02-AIC-CM.MACC.00.HHN</pickID>
      <waveformID networkCode="CM" stationCode="MACC" locationCode="00" channelCode="HHN"/>
      <creationInfo>
        <agencyID>SGC</agencyID>
        <author>pick_b_N@vega2.sgc.gov.co</author>
        <creationTime>2018-10-12T20:21:38.430855Z</creationTime>
      </creationInfo>
    </amplitude>
    <amplitude publicID="20180201.053912.02-AIC-CM.MACC.00.HHN.mb">
      <type>mb</type>
      <amplitude>
        <value>70.58360825</value>
      </amplitude>
      <timeWindow>
        <reference>2018-02-01T05:39:37.608393Z</reference>
        <begin>-30.58</begin>
        <end>4.42</end>
      </timeWindow>
      <period>
        <value>0.695</value>
      </period>
      <snr>15.93277149</snr>
      <pickID>20180201.053912.02-AIC-CM.MACC.00.HHN</pickID>
      <waveformID networkCode="CM" stationCode="MACC" locationCode="00" channelCode="HHN"/>
      <creationInfo>
        <agencyID>SGC</agencyID>
        <author>pick_b_N@vega2.sgc.gov.co</author>
        <creationTime>2018-10-12T20:21:38.43602Z</creationTime>
      </creationInfo>
    </amplitude>
    <amplitude publicID="20180201.053912.02-AIC-CM.MACC.00.HHN.mB">
      <type>mB</type>
      <amplitude>
        <value>1191.286999</value>
      </amplitude>
      <timeWindow>
        <reference>2018-02-01T05:39:47.618393Z</reference>
        <begin>-40.59</begin>
        <end>24.41</end>
      </timeWindow>
      <snr>7.085120983</snr>
      <pickID>20180201.053912.02-AIC-CM.MACC.00.HHN</pickID>
      <waveformID networkCode="CM" stationCode="MACC" locationCode="00" channelCode="HHN"/>
      <creationInfo>
        <agencyID>SGC</agencyID>
        <author>pick_b_N@vega2.sgc.gov.co</author>
        <creationTime>2018-10-12T20:21:38.440874Z</creationTime>
      </creationInfo>
    </amplitude>
    <amplitude publicID="20180201.053912.02-AIC-CM.MACC.00.HHN.MLv">
      <type>MLv</type>
      <amplitude>
        <value>0.4845119999</value>
      </amplitude>
      <timeWindow>
        <reference>2018-02-01T05:41:41.788393Z</reference>
        <begin>-154.76</begin>
        <end>0.24</end>
      </timeWindow>
      <snr>30.89644202</snr>
      <pickID>20180201.053912.02-AIC-CM.MACC.00.HHN</pickID>
      <waveformID networkCode="CM" stationCode="MACC" locationCode="00" channelCode="HHN"/>
      <creationInfo>
        <agencyID>SGC</agencyID>
        <author>pick_b_N@vega2.sgc.gov.co</author>
        <creationTime>2018-10-12T20:21:38.448008Z</creationTime>
      </creationInfo>
    </amplitude>
    <amplitude publicID="20180201.060422.18-AIC-CM.MACC.00.HHN.snr">
      <type>snr</type>
      <amplitude>
        <value>24.73886698</value>
      </amplitude>
      <timeWindow>
        <reference>2018-02-01T06:04:22.188393Z</reference>
        <begin>-29.74</begin>
        <end>10.26</end>
      </timeWindow>
      <snr>24.73886698</snr>
      <pickID>20180201.060422.18-AIC-CM.MACC.00.HHN</pickID>
      <waveformID networkCode="CM" stationCode="MACC" locationCode="00" channelCode="HHN"/>
      <creationInfo>
        <agencyID>SGC</agencyID>
        <author>pick_b_N@vega2.sgc.gov.co</author>
        <creationTime>2018-10-12T20:21:38.462182Z</creationTime>
      </creationInfo>
    </amplitude>
    <amplitude publicID="20180201.060422.18-AIC-CM.MACC.00.HHN.mb">
      <type>mb</type>
      <amplitude>
        <value>92.92781389</value>
      </amplitude>
      <timeWindow>
        <reference>2018-02-01T06:04:24.058393Z</reference>
        <begin>-6.87</begin>
        <end>28.13</end>
      </timeWindow>
      <period>
        <value>0.8</value>
      </period>
      <snr>18.64962204</snr>
      <pickID>20180201.060422.18-AIC-CM.MACC.00.HHN</pickID>
      <waveformID networkCode="CM" stationCode="MACC" locationCode="00" channelCode="HHN"/>
      <creationInfo>
        <agencyID>SGC</agencyID>
        <author>pick_b_N@vega2.sgc.gov.co</author>
        <creationTime>2018-10-12T20:21:38.471925Z</creationTime>
      </creationInfo>
    </amplitude>
    <amplitude publicID="20180201.060422.18-AIC-CM.MACC.00.HHN.mB">
      <type>mB</type>
      <amplitude>
        <value>2921.425844</value>
      </amplitude>
      <timeWindow>
        <reference>2018-02-01T06:04:23.748393Z</reference>
        <begin>-6.56</begin>
        <end>58.44</end>
      </timeWindow>
      <snr>8.670749974</snr>
      <pickID>20180201.060422.18-AIC-CM.MACC.00.HHN</pickID>
      <waveformID networkCode="CM" stationCode="MACC" locationCode="00" channelCode="HHN"/>
      <creationInfo>
        <agencyID>SGC</agencyID>
        <author>pick_b_N@vega2.sgc.gov.co</author>
        <creationTime>2018-10-12T20:21:38.481865Z</creationTime>
      </creationInfo>
    </amplitude>
    <amplitude publicID="20180201.060422.18-AIC-CM.MACC.00.HHN.MLv">
      <type>MLv</type>
      <amplitude>
        <value>0.4400796055</value>
      </amplitude>
      <timeWindow>
        <reference>2018-02-01T06:04:24.258393Z</reference>
        <begin>-7.07</begin>
